{
    "links": {
        "self": "http://www.neowsapp.com/rest/v1/neo/3360544?api_key=iIulBulltgU6a56xZRHN4H3l9WmuAYTsLGpBGhQ2"
    },
    "id": "3360544",
    "neo_reference_id": "3360544",
    "name": "(2006 WA30)",
    "designation": "2006 WA30",
    "nasa_jpl_url": "http://ssd.jpl.nasa.gov/sbdb.cgi?sstr=3360544",
    "absolute_magnitude_h": 25.6,
    "estimated_diameter": {
        "kilometers": {
            "estimated_diameter_min": 0.0201629919,
            "estimated_diameter_max": 0.0450858206
        },
        "meters": {
            "estimated_diameter_min": 20.1629919443,
            "estimated_diameter_max": 45.0858206172
        },
        "miles": {
            "estimated_diameter_min": 0.0125286985,
            "estimated_diameter_max": 0.0280150214
        },
        "feet": {
            "estimated_diameter_min": 66.1515504905,
            "estimated_diameter_max": 147.9193637137
        }
    },
    "is_potentially_hazardous_asteroid": false,
    "close_approach_data": [
        {
            "close_approach_date": "2006-11-30",
            "close_approach_date_full": "2006-Nov-30 09:36",
            "epoch_date_close_approach": 1164879360000,
            "relative_velocity": {
                "kilometers_per_second": "9.7756598881",
                "kilometers_per_hour": "35192.3755971777",
                "miles_per_hour": "21867.1736037019"
            },
            "miss_distance": {
                "astronomical": "0.0350427676",
                "lunar": "13.6316365964",
                "kilometers": "5242323.391865012",
                "miles": "3257428.7067286856"
            },
            "orbiting_body": "Earth"
        }
    ],
    "orbital_data": {
        "orbit_id": "6",
        "orbit_determination_date": "2017-04-06 09:07:31",
        "first_observation_date": "2006-11-20",
        "last_observation_date": "2006-11-25",
        "data_arc_in_days": 5,
        "observations_used": 17,
        "orbit_uncertainty": "8",
        "minimum_orbit_intersection": ".0325444",
        "jupiter_tisserand_invariant": "4.192",
        "epoch_osculation": "2454062.5",
        "eccentricity": ".4219057557967955",
        "semi_major_axis": "1.629757400386082",
        "inclination": "10.07948254336213",
        "ascending_node_longitude": "241.5527368434743",
        "orbital_period": "759.9462381294179",
        "perihelion_distance": ".9421533726107716",
        "perihelion_argument": "226.663404980308",
        "aphelion_distance": "2.317361428161393",
        "perihelion_time": "2454102.080467057268",
        "mean_anomaly": "341.2500313499941",
        "mean_motion": ".4737177209879055",
        "equinox": "J2000",
        "orbit_class": {
            "orbit_class_type": "APO",
            "orbit_class_description": "Near-Earth asteroid orbits which cross the Earth’s orbit similar to that of 1862 Apollo",
            "orbit_class_range": "a (semi-major axis) > 1.0 AU; q (perihelion) < 1.017 AU"
        }
    },
    "is_sentry_object": false
}